FENGYUN 1C DEB          
1 38726U 99025ETT 17327.62518041  .00001325  00000-0  58079-3 0  9991
2 38726  99.1888 122.4320 0088693  74.3027 286.7913 14.23384983276480
